ORBCOMM FM06            
1 25118U 97084G   25154.49310575  .00002364  00000+0  69691-3 0  9994
2 25118  45.0140  73.5552 0000476  20.7120 148.9352 14.46040162439544
ORBCOMM FM07            
1 25119U 97084H   25154.47392284  .00002550  00000+0  74851-3 0  9991
2 25119  45.0131  74.4161 0001727 118.8493 241.2532 14.46038401439532
ORBCOMM FM03            
1 25158U 98007B   25154.59613056  .00001557  00000+0  59111-3 0  9994
2 25158 107.9651 107.6797 0046657 273.3953  86.1850 14.34482859422092
ORBCOMM FM04            
1 25159U 98007C   25154.58268851  .00001471  00000+0  55933-3 0  9996
2 25159 107.9640 110.8641 0042400 270.9343  88.6939 14.34732310422278
ORBCOMM FM17            
1 25413U 98046A   25154.19703511  .00000999  00000+0  39624-3 0  9999
2 25413  44.9953 323.6312 0003447 147.6808 212.4251 14.35076006401164
